{"fetched_at":"2026-03-29T02:12:04Z","count":15717,"tles":[{"name":"STARLINK-33725","line1":"1 63717U 25087W   26087.51763016  .00019784  00000+0  67820-3 0  9992","line2":"2 63717  53.1602 132.0001 0001244  84.5309 275.5833 15.30205789 52088","category":"Starlink"}]}